[
    {
        "OBJECT_NAME": "CYGFM05",
        "OBJECT_ID": "2016-078A",
        "EPOCH": "2026-06-08T03:15:40.533120",
        "MEAN_MOTION": 15.56264978,
        "ECCENTRICITY": 0.0006939,
        "INCLINATION": 34.9577,
        "RA_OF_ASC_NODE": 320.5088,
        "ARG_OF_PERICENTER": 57.2733,
        "MEAN_ANOMALY": 302.8659,
        "EPHEMERIS_TYPE": 0,
        "CLASSIFICATION_TYPE": "U",
        "NORAD_CAT_ID": 41884,
        "ELEMENT_SET_NO": 999,
        "REV_AT_EPOCH": 52734,
        "BSTAR": 0.00029099,
        "MEAN_MOTION_DOT": 0.00021149,
        "MEAN_MOTION_DDOT": 0
    },
    {
        "OBJECT_NAME": "CYGFM04",
        "OBJECT_ID": "2016-078B",
        "EPOCH": "2026-06-08T01:41:23.049888",
        "MEAN_MOTION": 15.61001382,
        "ECCENTRICITY": 0.000596,
        "INCLINATION": 34.9327,
        "RA_OF_ASC_NODE": 289.0859,
        "ARG_OF_PERICENTER": 104.2371,
        "MEAN_ANOMALY": 255.9016,
        "EPHEMERIS_TYPE": 0,
        "CLASSIFICATION_TYPE": "U",
        "NORAD_CAT_ID": 41885,
        "ELEMENT_SET_NO": 999,
        "REV_AT_EPOCH": 52757,
        "BSTAR": 0.00034874,
        "MEAN_MOTION_DOT": 0.00030386,
        "MEAN_MOTION_DDOT": 0
    },
    {
        "OBJECT_NAME": "CYGFM02",
        "OBJECT_ID": "2016-078C",
        "EPOCH": "2026-06-07T18:27:34.751808",
        "MEAN_MOTION": 15.6388678,
        "ECCENTRICITY": 0.0006939,
        "INCLINATION": 34.941,
        "RA_OF_ASC_NODE": 285.9023,
        "ARG_OF_PERICENTER": 102.1457,
        "MEAN_ANOMALY": 258.0047,
        "EPHEMERIS_TYPE": 0,
        "CLASSIFICATION_TYPE": "U",
        "NORAD_CAT_ID": 41886,
        "ELEMENT_SET_NO": 999,
        "REV_AT_EPOCH": 52769,
        "BSTAR": 0.00035547,
        "MEAN_MOTION_DOT": 0.00034711,
        "MEAN_MOTION_DDOT": 0
    },
    {
        "OBJECT_NAME": "CYGFM01",
        "OBJECT_ID": "2016-078D",
        "EPOCH": "2026-06-07T20:55:43.384224",
        "MEAN_MOTION": 15.56917446,
        "ECCENTRICITY": 0.0006911,
        "INCLINATION": 34.9407,
        "RA_OF_ASC_NODE": 323.3879,
        "ARG_OF_PERICENTER": 47.7074,
        "MEAN_ANOMALY": 312.4235,
        "EPHEMERIS_TYPE": 0,
        "CLASSIFICATION_TYPE": "U",
        "NORAD_CAT_ID": 41887,
        "ELEMENT_SET_NO": 999,
        "REV_AT_EPOCH": 52725,
        "BSTAR": 0.00033868,
        "MEAN_MOTION_DOT": 0.00025246,
        "MEAN_MOTION_DDOT": 0
    },
    {
        "OBJECT_NAME": "CYGFM08",
        "OBJECT_ID": "2016-078E",
        "EPOCH": "2026-06-07T17:15:47.081952",
        "MEAN_MOTION": 15.59518568,
        "ECCENTRICITY": 0.0007839,
        "INCLINATION": 34.9437,
        "RA_OF_ASC_NODE": 304.2251,
        "ARG_OF_PERICENTER": 81.2519,
        "MEAN_ANOMALY": 278.9093,
        "EPHEMERIS_TYPE": 0,
        "CLASSIFICATION_TYPE": "U",
        "NORAD_CAT_ID": 41888,
        "ELEMENT_SET_NO": 999,
        "REV_AT_EPOCH": 52749,
        "BSTAR": 0.00036036,
        "MEAN_MOTION_DOT": 0.00029673,
        "MEAN_MOTION_DDOT": 0
    },
    {
        "OBJECT_NAME": "CYGFM07",
        "OBJECT_ID": "2016-078G",
        "EPOCH": "2026-06-07T16:17:49.113888",
        "MEAN_MOTION": 15.59620789,
        "ECCENTRICITY": 0.0006346,
        "INCLINATION": 34.9451,
        "RA_OF_ASC_NODE": 292.844,
        "ARG_OF_PERICENTER": 98.7772,
        "MEAN_ANOMALY": 261.3672,
        "EPHEMERIS_TYPE": 0,
        "CLASSIFICATION_TYPE": "U",
        "NORAD_CAT_ID": 41890,
        "ELEMENT_SET_NO": 999,
        "REV_AT_EPOCH": 52751,
        "BSTAR": 0.0003598,
        "MEAN_MOTION_DOT": 0.00029729,
        "MEAN_MOTION_DDOT": 0
    },
    {
        "OBJECT_NAME": "CYGFM03",
        "OBJECT_ID": "2016-078H",
        "EPOCH": "2026-06-07T18:40:20.380224",
        "MEAN_MOTION": 15.59618754,
        "ECCENTRICITY": 0.0005908,
        "INCLINATION": 34.9404,
        "RA_OF_ASC_NODE": 294.1248,
        "ARG_OF_PERICENTER": 86.1053,
        "MEAN_ANOMALY": 274.0347,
        "EPHEMERIS_TYPE": 0,
        "CLASSIFICATION_TYPE": "U",
        "NORAD_CAT_ID": 41891,
        "ELEMENT_SET_NO": 999,
        "REV_AT_EPOCH": 52750,
        "BSTAR": 0.00033072,
        "MEAN_MOTION_DOT": 0.00027308,
        "MEAN_MOTION_DDOT": 0
    },
    {
        "OBJECT_NAME": "FENGYUN 3D",
        "OBJECT_ID": "2017-072A",
        "EPOCH": "2026-06-08T04:43:45.670368",
        "MEAN_MOTION": 14.19737916,
        "ECCENTRICITY": 0.0002632,
        "INCLINATION": 99.0127,
        "RA_OF_ASC_NODE": 133.4574,
        "ARG_OF_PERICENTER": 76.0491,
        "MEAN_ANOMALY": 284.0977,
        "EPHEMERIS_TYPE": 0,
        "CLASSIFICATION_TYPE": "U",
        "NORAD_CAT_ID": 43010,
        "ELEMENT_SET_NO": 999,
        "REV_AT_EPOCH": 44371,
        "BSTAR": 0.00010812,
        "MEAN_MOTION_DOT": 1.83e-6,
        "MEAN_MOTION_DDOT": 0
    },
    {
        "OBJECT_NAME": "NOAA 20 (JPSS-1)",
        "OBJECT_ID": "2017-073A",
        "EPOCH": "2026-06-08T02:52:51.959712",
        "MEAN_MOTION": 14.19510112,
        "ECCENTRICITY": 4.76e-5,
        "INCLINATION": 98.777,
        "RA_OF_ASC_NODE": 98.6634,
        "ARG_OF_PERICENTER": 40.4301,
        "MEAN_ANOMALY": 319.691,
        "EPHEMERIS_TYPE": 0,
        "CLASSIFICATION_TYPE": "U",
        "NORAD_CAT_ID": 43013,
        "ELEMENT_SET_NO": 999,
        "REV_AT_EPOCH": 44318,
        "BSTAR": 4.9736e-5,
        "MEAN_MOTION_DOT": 6.1e-7,
        "MEAN_MOTION_DDOT": 0
    },
    {
        "OBJECT_NAME": "GOES 17",
        "OBJECT_ID": "2018-022A",
        "EPOCH": "2026-06-08T00:58:44.198976",
        "MEAN_MOTION": 1.0027199,
        "ECCENTRICITY": 6.34e-5,
        "INCLINATION": 0.913,
        "RA_OF_ASC_NODE": 85.8739,
        "ARG_OF_PERICENTER": 8.7123,
        "MEAN_ANOMALY": 87.0479,
        "EPHEMERIS_TYPE": 0,
        "CLASSIFICATION_TYPE": "U",
        "NORAD_CAT_ID": 43226,
        "ELEMENT_SET_NO": 999,
        "REV_AT_EPOCH": 3033,
        "BSTAR": 0,
        "MEAN_MOTION_DOT": -1.67e-6,
        "MEAN_MOTION_DDOT": 0
    },
    {
        "OBJECT_NAME": "SENTINEL-3B",
        "OBJECT_ID": "2018-039A",
        "EPOCH": "2026-06-08T03:25:50.790144",
        "MEAN_MOTION": 14.26739258,
        "ECCENTRICITY": 8.69e-5,
        "INCLINATION": 98.625,
        "RA_OF_ASC_NODE": 226.8048,
        "ARG_OF_PERICENTER": 77.3993,
        "MEAN_ANOMALY": 282.7284,
        "EPHEMERIS_TYPE": 0,
        "CLASSIFICATION_TYPE": "U",
        "NORAD_CAT_ID": 43437,
        "ELEMENT_SET_NO": 999,
        "REV_AT_EPOCH": 42283,
        "BSTAR": 6.2385e-5,
        "MEAN_MOTION_DOT": 1.07e-6,
        "MEAN_MOTION_DDOT": 0
    },
    {
        "OBJECT_NAME": "FENGYUN 2H",
        "OBJECT_ID": "2018-050A",
        "EPOCH": "2026-06-08T01:46:58.478880",
        "MEAN_MOTION": 1.00271427,
        "ECCENTRICITY": 0.0001516,
        "INCLINATION": 3.007,
        "RA_OF_ASC_NODE": 79.1794,
        "ARG_OF_PERICENTER": 126.1581,
        "MEAN_ANOMALY": 157.3291,
        "EPHEMERIS_TYPE": 0,
        "CLASSIFICATION_TYPE": "U",
        "NORAD_CAT_ID": 43491,
        "ELEMENT_SET_NO": 999,
        "REV_AT_EPOCH": 2934,
        "BSTAR": 0,
        "MEAN_MOTION_DOT": -1.15e-6,
        "MEAN_MOTION_DDOT": 0
    }
]